CCSDS_OMM_VERS = 2.0
CREATION_DATE  = 
ORIGINATOR     = 

OBJECT_NAME    = STARLINK-36455
OBJECT_ID      = 2026-005Q
CENTER_NAME    = EARTH
REF_FRAME      = TEME
TIME_SYSTEM    = UTC
MEAN_ELEMENT_THEORY = SGP/SGP4

EPOCH          = 2026-01-25T20:00:03.000384
MEAN_MOTION    = 15.77227074
ECCENTRICITY   = .0001534
INCLINATION    = 43.0003
RA_OF_ASC_NODE = 125.7278
ARG_OF_PERICENTER = 283.8539
MEAN_ANOMALY   = 178.9545

EPHEMERIS_TYPE = 0
CLASSIFICATION_TYPE = U
NORAD_CAT_ID   = 67418
ELEMENT_SET_NO = 999
REV_AT_EPOCH   = 329
BSTAR          = -.10298E-1
MEAN_MOTION_DOT = -.1529484E-1
MEAN_MOTION_DDOT = 0

CCSDS_OMM_VERS = 2.0
CREATION_DATE  = 
ORIGINATOR     = 

OBJECT_NAME    = STARLINK-36424
OBJECT_ID      = 2026-005R
CENTER_NAME    = EARTH
REF_FRAME      = TEME
TIME_SYSTEM    = UTC
MEAN_ELEMENT_THEORY = SGP/SGP4

EPOCH          = 2026-01-25T20:00:03.000384
MEAN_MOTION    = 15.77161716
ECCENTRICITY   = .0001665
INCLINATION    = 42.9999
RA_OF_ASC_NODE = 125.7229
ARG_OF_PERICENTER = 283.8357
MEAN_ANOMALY   = 181.0569

EPHEMERIS_TYPE = 0
CLASSIFICATION_TYPE = U
NORAD_CAT_ID   = 67419
ELEMENT_SET_NO = 999
REV_AT_EPOCH   = 329
BSTAR          = -.10399E-1
MEAN_MOTION_DOT = -.1538671E-1
MEAN_MOTION_DDOT = 0

CCSDS_OMM_VERS = 2.0
CREATION_DATE  = 
ORIGINATOR     = 

OBJECT_NAME    = STARLINK-35564
OBJECT_ID      = 2026-005S
CENTER_NAME    = EARTH
REF_FRAME      = TEME
TIME_SYSTEM    = UTC
MEAN_ELEMENT_THEORY = SGP/SGP4

EPOCH          = 2026-01-25T20:00:03.000384
MEAN_MOTION    = 15.77067244
ECCENTRICITY   = .0001529
INCLINATION    = 42.9999
RA_OF_ASC_NODE = 125.7182
ARG_OF_PERICENTER = 291.7925
MEAN_ANOMALY   = 175.1136

EPHEMERIS_TYPE = 0
CLASSIFICATION_TYPE = U
NORAD_CAT_ID   = 67420
ELEMENT_SET_NO = 999
REV_AT_EPOCH   = 318
BSTAR          = -.94851E-2
MEAN_MOTION_DOT = -.1413556E-1
MEAN_MOTION_DDOT = 0

CCSDS_OMM_VERS = 2.0
CREATION_DATE  = 
ORIGINATOR     = 

OBJECT_NAME    = STARLINK-36431
OBJECT_ID      = 2026-005T
CENTER_NAME    = EARTH
REF_FRAME      = TEME
TIME_SYSTEM    = UTC
MEAN_ELEMENT_THEORY = SGP/SGP4

EPOCH          = 2026-01-25T20:00:03.000384
MEAN_MOTION    = 15.77043664
ECCENTRICITY   = .000167
INCLINATION    = 43.0004
RA_OF_ASC_NODE = 125.7130
ARG_OF_PERICENTER = 284.7689
MEAN_ANOMALY   = 184.1466

EPHEMERIS_TYPE = 0
CLASSIFICATION_TYPE = U
NORAD_CAT_ID   = 67421
ELEMENT_SET_NO = 999
REV_AT_EPOCH   = 308
BSTAR          = -.9812E-2
MEAN_MOTION_DOT = -.1455292E-1
MEAN_MOTION_DDOT = 0

CCSDS_OMM_VERS = 2.0
CREATION_DATE  = 
ORIGINATOR     = 

OBJECT_NAME    = STARLINK-36418
OBJECT_ID      = 2026-005U
CENTER_NAME    = EARTH
REF_FRAME      = TEME
TIME_SYSTEM    = UTC
MEAN_ELEMENT_THEORY = SGP/SGP4

EPOCH          = 2026-01-25T20:00:03.000384
MEAN_MOTION    = 15.77050288
ECCENTRICITY   = .000141
INCLINATION    = 43.0000
RA_OF_ASC_NODE = 125.7081
ARG_OF_PERICENTER = 293.0612
MEAN_ANOMALY   = 177.7855

EPHEMERIS_TYPE = 0
CLASSIFICATION_TYPE = U
NORAD_CAT_ID   = 67422
ELEMENT_SET_NO = 999
REV_AT_EPOCH   = 324
BSTAR          = -.10075E-1
MEAN_MOTION_DOT = -.1489795E-1
MEAN_MOTION_DDOT = 0

CCSDS_OMM_VERS = 2.0
CREATION_DATE  = 
ORIGINATOR     = 

OBJECT_NAME    = STARLINK-36465
OBJECT_ID      = 2026-005V
CENTER_NAME    = EARTH
REF_FRAME      = TEME
TIME_SYSTEM    = UTC
MEAN_ELEMENT_THEORY = SGP/SGP4

EPOCH          = 2026-01-25T20:00:03.000384
MEAN_MOTION    = 15.76977933
ECCENTRICITY   = .0001598
INCLINATION    = 43.0005
RA_OF_ASC_NODE = 125.7031
ARG_OF_PERICENTER = 291.7529
MEAN_ANOMALY   = 181.1640

EPHEMERIS_TYPE = 0
CLASSIFICATION_TYPE = U
NORAD_CAT_ID   = 67423
ELEMENT_SET_NO = 999
REV_AT_EPOCH   = 303
BSTAR          = -.10041E-1
MEAN_MOTION_DOT = -.1481322E-1
MEAN_MOTION_DDOT = 0

CCSDS_OMM_VERS = 2.0
CREATION_DATE  = 
ORIGINATOR     = 

OBJECT_NAME    = STARLINK-36362
OBJECT_ID      = 2026-005W
CENTER_NAME    = EARTH
REF_FRAME      = TEME
TIME_SYSTEM    = UTC
MEAN_ELEMENT_THEORY = SGP/SGP4

EPOCH          = 2026-01-25T20:00:03.000384
MEAN_MOTION    = 15.76949675
ECCENTRICITY   = .0001532
INCLINATION    = 43.0003
RA_OF_ASC_NODE = 125.6982
ARG_OF_PERICENTER = 290.7891
MEAN_ANOMALY   = 184.1529

EPHEMERIS_TYPE = 0
CLASSIFICATION_TYPE = U
NORAD_CAT_ID   = 67424
ELEMENT_SET_NO = 999
REV_AT_EPOCH   = 329
BSTAR          = -.10452E-1
MEAN_MOTION_DOT = -.1532661E-1
MEAN_MOTION_DDOT = 0

CCSDS_OMM_VERS = 2.0
CREATION_DATE  = 
ORIGINATOR     = 

OBJECT_NAME    = STARLINK-36447
OBJECT_ID      = 2026-005X
CENTER_NAME    = EARTH
REF_FRAME      = TEME
TIME_SYSTEM    = UTC
MEAN_ELEMENT_THEORY = SGP/SGP4

EPOCH          = 2026-01-25T20:00:03.000384
MEAN_MOTION    = 15.76880336
ECCENTRICITY   = .0001714
INCLINATION    = 43.0003
RA_OF_ASC_NODE = 125.6927
ARG_OF_PERICENTER = 284.2410
MEAN_ANOMALY   = 192.7555

EPHEMERIS_TYPE = 0
CLASSIFICATION_TYPE = U
NORAD_CAT_ID   = 67425
ELEMENT_SET_NO = 999
REV_AT_EPOCH   = 329
BSTAR          = -.10502E-1
MEAN_MOTION_DOT = -.1534941E-1
MEAN_MOTION_DDOT = 0

CCSDS_OMM_VERS = 2.0
CREATION_DATE  = 
ORIGINATOR     = 

OBJECT_NAME    = STARLINK-36146
OBJECT_ID      = 2026-005Y
CENTER_NAME    = EARTH
REF_FRAME      = TEME
TIME_SYSTEM    = UTC
MEAN_ELEMENT_THEORY = SGP/SGP4

EPOCH          = 2026-01-25T20:00:03.000384
MEAN_MOTION    = 15.76850822
ECCENTRICITY   = .0001539
INCLINATION    = 43.0003
RA_OF_ASC_NODE = 125.6873
ARG_OF_PERICENTER = 285.6403
MEAN_ANOMALY   = 193.3694

EPHEMERIS_TYPE = 0
CLASSIFICATION_TYPE = U
NORAD_CAT_ID   = 67426
ELEMENT_SET_NO = 999
REV_AT_EPOCH   = 324
BSTAR          = -.10852E-1
MEAN_MOTION_DOT = -.1577477E-1
MEAN_MOTION_DDOT = 0

CCSDS_OMM_VERS = 2.0
CREATION_DATE  = 
ORIGINATOR     = 

OBJECT_NAME    = STARLINK-36459
OBJECT_ID      = 2026-005Z
CENTER_NAME    = EARTH
REF_FRAME      = TEME
TIME_SYSTEM    = UTC
MEAN_ELEMENT_THEORY = SGP/SGP4

EPOCH          = 2026-01-25T20:00:03.000384
MEAN_MOTION    = 15.76802824
ECCENTRICITY   = .0001429
INCLINATION    = 43.0001
RA_OF_ASC_NODE = 125.6821
ARG_OF_PERICENTER = 290.4016
MEAN_ANOMALY   = 190.6101

EPHEMERIS_TYPE = 0
CLASSIFICATION_TYPE = U
NORAD_CAT_ID   = 67427
ELEMENT_SET_NO = 999
REV_AT_EPOCH   = 321
BSTAR          = -.1086E-1
MEAN_MOTION_DOT = -.1575477E-1
MEAN_MOTION_DDOT = 0

CCSDS_OMM_VERS = 2.0
CREATION_DATE  = 
ORIGINATOR     = 

OBJECT_NAME    = STARLINK-36464
OBJECT_ID      = 2026-005AA
CENTER_NAME    = EARTH
REF_FRAME      = TEME
TIME_SYSTEM    = UTC
MEAN_ELEMENT_THEORY = SGP/SGP4

EPOCH          = 2026-01-25T20:00:03.000384
MEAN_MOTION    = 15.76765814
ECCENTRICITY   = .0001492
INCLINATION    = 43.0003
RA_OF_ASC_NODE = 125.6723
ARG_OF_PERICENTER = 292.6346
MEAN_ANOMALY   = 192.2817

EPHEMERIS_TYPE = 0
CLASSIFICATION_TYPE = U
NORAD_CAT_ID   = 67428
ELEMENT_SET_NO = 999
REV_AT_EPOCH   = 329
BSTAR          = -.10676E-1
MEAN_MOTION_DOT = -.154995E-1
MEAN_MOTION_DDOT = 0

CCSDS_OMM_VERS = 2.0
CREATION_DATE  = 
ORIGINATOR     = 

OBJECT_NAME    = STARLINK-36513
OBJECT_ID      = 2026-005AB
CENTER_NAME    = EARTH
REF_FRAME      = TEME
TIME_SYSTEM    = UTC
MEAN_ELEMENT_THEORY = SGP/SGP4

EPOCH          = 2026-01-25T20:00:03.000384
MEAN_MOTION    = 15.76762140
ECCENTRICITY   = .0001778
INCLINATION    = 43.0001
RA_OF_ASC_NODE = 125.6677
ARG_OF_PERICENTER = 283.9553
MEAN_ANOMALY   = 202.9070

EPHEMERIS_TYPE = 0
CLASSIFICATION_TYPE = U
NORAD_CAT_ID   = 67429
ELEMENT_SET_NO = 999
REV_AT_EPOCH   = 329
BSTAR          = -.10939E-1
MEAN_MOTION_DOT = -.1583161E-1
MEAN_MOTION_DDOT = 0

