STARLINK-36455          
1 67418U 26005Q   26025.83336806 -.01529484  00000+0 -10298-1 0  9996
2 67418  43.0003 125.7278 0001534 283.8539 178.9545 15.77227074  3296
STARLINK-36424          
1 67419U 26005R   26025.83336806 -.01538671  00000+0 -10399-1 0  9997
2 67419  42.9999 125.7229 0001665 283.8357 181.0569 15.77161716  3299
STARLINK-35564          
1 67420U 26005S   26025.83336806 -.01413556  00000+0 -94851-2 0  9999
2 67420  42.9999 125.7182 0001529 291.7925 175.1136 15.77067244  3180
STARLINK-36431          
1 67421U 26005T   26025.83336806 -.01455292  00000+0 -98120-2 0  9996
2 67421  43.0004 125.7130 0001670 284.7689 184.1466 15.77043664  3084
STARLINK-36418          
1 67422U 26005U   26025.83336806 -.01489795  00000+0 -10075-1 0  9994
2 67422  43.0000 125.7081 0001410 293.0612 177.7855 15.77050288  3245
STARLINK-36465          
1 67423U 26005V   26025.83336806 -.01481322  00000+0 -10041-1 0  9996
2 67423  43.0005 125.7031 0001598 291.7529 181.1640 15.76977933  3037
STARLINK-36362          
1 67424U 26005W   26025.83336806 -.01532661  00000+0 -10452-1 0  9996
2 67424  43.0003 125.6982 0001532 290.7891 184.1529 15.76949675  3298
STARLINK-36447          
1 67425U 26005X   26025.83336806 -.01534941  00000+0 -10502-1 0  9996
2 67425  43.0003 125.6927 0001714 284.2410 192.7555 15.76880336  3297
STARLINK-36146          
1 67426U 26005Y   26025.83336806 -.01577477  00000+0 -10852-1 0  9996
2 67426  43.0003 125.6873 0001539 285.6403 193.3694 15.76850822  3243
STARLINK-36459          
1 67427U 26005Z   26025.83336806 -.01575477  00000+0 -10860-1 0  9994
2 67427  43.0001 125.6821 0001429 290.4016 190.6101 15.76802824  3216
STARLINK-36464          
1 67428U 26005AA  26025.83336806 -.01549950  00000+0 -10676-1 0  9997
2 67428  43.0003 125.6723 0001492 292.6346 192.2817 15.76765814  3297
STARLINK-36513          
1 67429U 26005AB  26025.83336806 -.01583161  00000+0 -10939-1 0  9992
2 67429  43.0001 125.6677 0001778 283.9553 202.9070 15.76762140  3293
